OBJECT B                
1 51825U 22019B   24308.88144188  .00043488  00000+0  15640-2 0  9998
2 51825  97.4141  18.9422 0013879 106.6666 253.6098 15.28395123148515
